OBJECT_NAME,OBJECT_ID,EPOCH,MEAN_MOTION,ECCENTRICITY,INCLINATION,RA_OF_ASC_NODE,ARG_OF_PERICENTER,MEAN_ANOMALY,EPHEMERIS_TYPE,CLASSIFICATION_TYPE,NORAD_CAT_ID,ELEMENT_SET_NO,REV_AT_EPOCH,BSTAR,MEAN_MOTION_DOT,MEAN_MOTION_DDOT
SCD 1,1993-009B,2026-06-04T18:04:03.362016,14.46114464,.00419594,24.9702,284.3530,6.6560,106.6620,0,U,22490,999,75931,.69390152E-4,.439E-5,0
TECHSAT 1B (GO-32),1998-043D,2026-06-03T13:51:55.224864,14.24425649,.00003192,99.0064,146.9934,213.6137,146.5021,0,U,25397,999,44939,.49971906E-4,.69E-6,0
SCD 2,1998-060A,2026-06-04T09:39:50.177376,14.45520658,.00166767,24.9935,151.0008,349.0284,120.2222,0,U,25504,999,45847,.66638292E-4,.421E-5,0
DLR-TUBSAT,1999-029B,2026-06-04T04:54:09.294336,14.52423384,.00148162,98.6692,150.2812,33.8590,326.3547,0,U,25757,999,43136,.45301378E-4,.136E-5,0
TERRA,1999-068A,2026-06-04T21:46:41.152800,14.61093250,.00008195,97.9461,205.9400,258.4434,222.1880,0,U,25994,999,40781,.10568133E-3,.475E-5,0
MAROC-TUBSAT,2001-056D,2026-06-04T00:24:07.437600,13.70261883,.00199056,99.8077,331.6285,174.4491,304.2897,0,U,27004,999,22438,.13965891E-4,-.34E-6,0
AQUA,2002-022A,2026-06-04T22:35:18.016800,14.62139093,.00015775,98.4271,124.9800,56.3651,2.8907,0,U,27424,999,28148,.20237252E-3,.968E-5,0
SHIYAN-1 (SY-1),2004-012A,2026-06-04T17:18:42.236352,15.33431428,.00065604,97.8690,232.9831,71.9903,288.2053,0,U,28220,999,20918,.48024737E-3,.15455E-3,0
AURA,2004-026A,2026-06-04T17:30:41.825664,14.61309639,.00013855,98.3412,112.0805,70.5474,289.5876,0,U,28376,999,16439,.20267255E-3,.953E-5,0
IRS-P5 (CARTOSAT-1),2005-017A,2026-06-04T15:54:50.669280,14.91016060,.00026798,97.5313,179.2955,96.2375,263.9149,0,U,28649,999,14195,.1749189E-3,.1677E-4,0
SINAH 1,2005-043D,2026-06-04T21:21:14.158944,14.64149316,.00134913,98.2846,290.1406,318.7483,41.2698,0,U,28893,999,9872,.8881716E-4,.418E-5,0
RESURS-DK 1,2006-021A,2026-06-04T17:45:30.511008,15.13159545,.00060866,69.9333,11.7730,302.4900,57.5678,0,U,29228,999,10069,.156947E-3,.2682E-4,0
ARIRANG-2 (KOMPSAT-2),2006-031A,2026-06-04T22:27:57.826080,14.64652404,.00157302,97.8303,340.9753,109.8408,356.1823,0,U,29268,999,5968,.83258494E-4,.398E-5,0
LAPAN-TUBSAT,2007-001A,2026-06-04T22:21:16.274304,14.85935497,.00109903,98.1339,154.8795,221.7992,138.2384,0,U,29709,999,4933,.21278868E-4,.128E-5,0
HAIYANG-1B,2007-010A,2026-06-03T13:55:35.735808,14.31023350,.00123401,98.3489,136.9535,239.3242,120.6726,0,U,31113,999,99868,.54011753E-4,.1E-5,0
COSMO-SKYMED 1,2007-023A,2026-06-04T23:17:24.321696,14.97046745,.00014859,97.8862,347.7245,81.4524,278.6865,0,U,31598,999,2796,.22063861E-3,.2482E-4,0
TERRASAR-X,2007-026A,2026-06-04T16:14:31.233696,15.19148915,.00016197,97.4453,163.5606,90.1175,270.0246,0,U,31698,999,5132,.4517233E-4,.882E-5,0
WORLDVIEW-1 (WV-1),2007-041A,2026-06-04T05:27:46.752480,15.24115578,.00033234,97.3865,275.1602,55.2782,304.8768,0,U,32060,999,4090,.29202594E-3,.7029E-4,0
YAOGAN-3,2007-055A,2026-06-04T23:28:53.359968,14.90734270,.00020601,97.8157,185.9772,89.0939,271.0515,0,U,32289,999,405,.24140539E-3,.2315E-4,0
COSMO-SKYMED 2,2007-059A,2026-06-04T22:35:56.539968,14.82161422,.00014563,97.8885,339.7174,87.5091,272.6289,0,U,32376,999,19,.69414614E-4,.5E-5,0
RADARSAT-2,2007-061A,2026-06-04T22:23:18.618432,14.29982043,.00013205,98.5776,163.0402,81.1348,278.9984,0,U,32382,999,96420,.23485214E-4,.17E-6,0
CARTOSAT-2A,2008-021A,2026-06-04T22:31:02.977824,14.79218875,.00124281,97.7635,205.0643,144.9776,215.2256,0,U,32783,999,97699,.73181748E-4,.494E-5,0
HUANJING 1A (HJ-1A),2008-041A,2026-06-04T23:05:00.219840,14.83955904,.00188148,97.6681,142.2735,173.8229,186.3222,0,U,33320,999,95659,.98002009E-4,.766E-5,0
HUANJING 1B (HJ-1B),2008-041B,2026-06-04T22:12:31.854816,14.83295167,.00350297,97.6515,145.4470,222.1543,137.6977,0,U,33321,999,95659,.14007852E-3,.1106E-4,0
GEOEYE 1,2008-042A,2026-06-04T20:31:57.988992,14.64714004,.00055704,98.1237,229.9428,98.9825,261.2008,0,U,33331,999,94834,.12100367E-3,.597E-5,0
THEOS,2008-049A,2026-06-04T23:47:34.111392,14.20132123,.00012896,98.5572,213.6702,80.4072,279.7251,0,U,33396,999,91623,.14702424E-3,.271E-5,0
COSMO-SKYMED 3,2008-054A,2026-06-04T22:12:11.841984,15.06873852,.00144201,97.8295,14.2922,313.4621,46.5406,0,U,33412,999,95509,.21950772E-3,.3216E-4,0
YAOGAN-4,2008-061A,2026-06-04T18:05:29.852736,14.83176042,.00156544,97.9306,89.3564,109.2138,251.0771,0,U,33446,999,94382,.1580293E-3,.1238E-4,0
GOSAT (IBUKI),2009-002A,2026-06-04T17:30:03.474432,14.67542127,.0001607,98.0889,266.9692,80.9948,279.1439,0,U,33492,999,92963,.22358471E-3,.122E-4,0
DEIMOS-1,2009-041A,2026-06-04T23:27:32.639904,14.75224466,.00007533,97.7392,313.7350,139.1207,221.0059,0,U,35681,999,90508,.98434924E-4,.618E-5,0
