SCD 1                   
1 22490U 93009B   26155.75281669  .00000439  00000+0  69390-4 0  9997
2 22490  24.9702 284.3530 0041959   6.6560 106.6620 14.46114464759310
TECHSAT 1B (GO-32)      
1 25397U 98043D   26154.57772251  .00000069  00000+0  49972-4 0  9993
2 25397  99.0064 146.9934 0000319 213.6137 146.5021 14.24425649449397
SCD 2                   
1 25504U 98060A   26155.40266409  .00000421  00000+0  66638-4 0  9998
2 25504  24.9935 151.0008 0016676 349.0284 120.2222 14.45520658458470
DLR-TUBSAT              
1 25757U 99029B   26155.20427424  .00000136  00000+0  45301-4 0  9995
2 25757  98.6692 150.2812 0014816  33.8590 326.3547 14.52423384431368
TERRA                   
1 25994U 99068A   26155.90742075  .00000475  00000+0  10568-3 0  9992
2 25994  97.9461 205.9400 0000819 258.4434 222.1880 14.61093250407819
MAROC-TUBSAT            
1 27004U 01056D   26155.01675275 -.00000034  00000+0  13966-4 0  9993
2 27004  99.8077 331.6285 0019905 174.4491 304.2897 13.70261883224388
AQUA                    
1 27424U 02022A   26155.94118075  .00000968  00000+0  20237-3 0  9998
2 27424  98.4271 124.9800 0001577  56.3651   2.8907 14.62139093281489
SHIYAN-1 (SY-1)         
1 28220U 04012A   26155.72132218  .00015455  00000+0  48025-3 0  9997
2 28220  97.8690 232.9831 0006560  71.9903 288.2053 15.33431428209181
AURA                    
1 28376U 04026A   26155.72965076  .00000953  00000+0  20267-3 0  9995
2 28376  98.3412 112.0805 0001385  70.5474 289.5876 14.61309639164396
IRS-P5 (CARTOSAT-1)     
1 28649U 05017A   26155.66308645  .00001677  00000+0  17492-3 0  9995
2 28649  97.5313 179.2955 0002679  96.2375 263.9149 14.91016060141955
SINAH 1                 
1 28893U 05043D   26155.88974721  .00000418  00000+0  88817-4 0  9995
2 28893  98.2846 290.1406 0013491 318.7483  41.2698 14.64149316 98728
RESURS-DK 1             
1 29228U 06021A   26155.73993647  .00002682  00000+0  15695-3 0  9995
2 29228  69.9333  11.7730 0006086 302.4900  57.5678 15.13159545100698
ARIRANG-2 (KOMPSAT-2)   
1 29268U 06031A   26155.93608595  .00000398  00000+0  83258-4 0  9990
2 29268  97.8303 340.9753 0015730 109.8408 356.1823 14.64652404 59688
LAPAN-TUBSAT            
1 29709U 07001A   26155.93143836  .00000128  00000+0  21279-4 0  9996
2 29709  98.1339 154.8795 0010990 221.7992 138.2384 14.85935497 49335
HAIYANG-1B              
1 31113U 07010A   26154.58027472  .00000100  00000+0  54012-4 0  9996
2 31113  98.3489 136.9535 0012340 239.3242 120.6726 14.31023350998685
COSMO-SKYMED 1          
1 31598U 07023A   26155.97042039  .00002482  00000+0  22064-3 0  9993
2 31598  97.8862 347.7245 0001485  81.4524 278.6865 14.97046745 27965
TERRASAR-X              
1 31698U 07026A   26155.67675039  .00000882  00000+0  45172-4 0  9994
2 31698  97.4453 163.5606 0001619  90.1175 270.0246 15.19148915 51324
WORLDVIEW-1 (WV-1)      
1 32060U 07041A   26155.22762445  .00007029  00000+0  29203-3 0  9990
2 32060  97.3865 275.1602 0003323  55.2782 304.8768 15.24115578 40902
YAOGAN-3                
1 32289U 07055A   26155.97839537  .00002315  00000+0  24141-3 0  9996
2 32289  97.8157 185.9772 0002060  89.0939 271.0515 14.90734270  4055
COSMO-SKYMED 2          
1 32376U 07059A   26155.94162662  .00000500  00000+0  69415-4 0  9990
2 32376  97.8885 339.7174 0001456  87.5091 272.6289 14.82161422   195
RADARSAT-2              
1 32382U 07061A   26155.93285438  .00000017  00000+0  23485-4 0  9996
2 32382  98.5776 163.0402 0001320  81.1348 278.9984 14.29982043964209
CARTOSAT-2A             
1 32783U 08021A   26155.93822891  .00000494  00000+0  73182-4 0  9996
2 32783  97.7635 205.0643 0012428 144.9776 215.2256 14.79218875976992
HUANJING 1A (HJ-1A)     
1 33320U 08041A   26155.96180810  .00000766  00000+0  98002-4 0  9997
2 33320  97.6681 142.2735 0018814 173.8229 186.3222 14.83955904956594
HUANJING 1B (HJ-1B)     
1 33321U 08041B   26155.92536869  .00001106  00000+0  14008-3 0  9995
2 33321  97.6515 145.4470 0035029 222.1543 137.6977 14.83295167956590
GEOEYE 1                
1 33331U 08042A   26155.85553228  .00000597  00000+0  12100-3 0  9991
2 33331  98.1237 229.9428 0005570  98.9825 261.2008 14.64714004948347
THEOS                   
1 33396U 08049A   26155.99136703  .00000271  00000+0  14702-3 0  9998
2 33396  98.5572 213.6702 0001289  80.4072 279.7251 14.20132123916237
COSMO-SKYMED 3          
1 33412U 08054A   26155.92513706  .00003216  00000+0  21951-3 0  9994
2 33412  97.8295  14.2922 0014420 313.4621  46.5406 15.06873852955094
YAOGAN-4                
1 33446U 08061A   26155.75381774  .00001238  00000+0  15803-3 0  9999
2 33446  97.9306  89.3564 0015654 109.2138 251.0771 14.83176042943821
GOSAT (IBUKI)           
1 33492U 09002A   26155.72920688  .00001220  00000+0  22358-3 0  9990
2 33492  98.0889 266.9692 0001607  80.9948 279.1439 14.67542127929630
DEIMOS-1                
1 35681U 09041A   26155.97746111  .00000618  00000+0  98435-4 0  9999
2 35681  97.7392 313.7350 0000753 139.1207 221.0059 14.75224466905084
